ORBCOMM FM115 [+]       
1 41186U 15081H   23347.56129504  .00000502  00000+0  13878-3 0  9992
2 41186  46.9978 138.0840 0000159 315.8962  44.1912 14.60171500427096
ORBCOMM FM108 [+]       
1 41187U 15081J   23346.70970572  .00000490  00000+0  14756-3 0  9999
2 41187  47.0036 191.7259 0002567 292.1334  67.9278 14.56122388426226
ORBCOMM FM117 [+]       
1 41188U 15081K   23347.70474256  .00000371  00000+0  12094-3 0  9990
2 41188  46.9995 185.9859 0003105 308.6427  51.4179 14.56121366426419
ORBCOMM FM116 [+]       
1 41189U 15081L   23347.89996412  .00000736  00000+0  20286-3 0  9991
2 41189  47.0025 274.8755 0002097  28.1795 331.9203 14.56141280425252
